[{"OBJECT_NAME":"YAOGAN-30 09A","OBJECT_ID":"2021-039A","EPOCH":"2026-03-09T22:49:24.864672","MEAN_MOTION":15.02125939,"ECCENTRICITY":0.0004998,"INCLINATION":34.9966,"RA_OF_ASC_NODE":276.1989,"ARG_OF_PERICENTER":265.144,"MEAN_ANOMALY":94.8698,"EPHEMERIS_TYPE":0,"CLASSIFICATION_TYPE":"U","NORAD_CAT_ID":48423,"ELEMENT_SET_NO":999,"REV_AT_EPOCH":26461,"BSTAR":0.00029068534,"MEAN_MOTION_DOT":3.873e-5,"MEAN_MOTION_DDOT":0},{"OBJECT_NAME":"STARLINK-6147","OBJECT_ID":"2023-090V","EPOCH":"2026-03-09T13:13:58.784448","MEAN_MOTION":15.0254379,"ECCENTRICITY":0.00011915,"INCLINATION":43.0024,"RA_OF_ASC_NODE":275.3087,"ARG_OF_PERICENTER":279.6965,"MEAN_ANOMALY":80.3743,"EPHEMERIS_TYPE":0,"CLASSIFICATION_TYPE":"U","NORAD_CAT_ID":57120,"ELEMENT_SET_NO":999,"REV_AT_EPOCH":15039,"BSTAR":7.8902784e-5,"MEAN_MOTION_DOT":8.63e-6,"MEAN_MOTION_DDOT":0}]
